[{"OBJECT_NAME":"STARLINK-6189","OBJECT_ID":"2023-061D","EPOCH":"2026-03-09T22:00:01.999584","MEAN_MOTION":15.13426184,"ECCENTRICITY":0.00021785,"INCLINATION":43.001,"RA_OF_ASC_NODE":195.8605,"ARG_OF_PERICENTER":262.2478,"MEAN_ANOMALY":82.0402,"EPHEMERIS_TYPE":0,"CLASSIFICATION_TYPE":"U","NORAD_CAT_ID":56377,"ELEMENT_SET_NO":999,"REV_AT_EPOCH":567,"BSTAR":0.002474963,"MEAN_MOTION_DOT":0.00045065,"MEAN_MOTION_DDOT":0},{"OBJECT_NAME":"USA 3","OBJECT_ID":"1984-065C","EPOCH":"2026-03-09T16:01:22.012032","MEAN_MOTION":15.13173444,"ECCENTRICITY":0.000348,"INCLINATION":95.8957,"RA_OF_ASC_NODE":320.3284,"ARG_OF_PERICENTER":357.3815,"MEAN_ANOMALY":2.7401,"EPHEMERIS_TYPE":0,"CLASSIFICATION_TYPE":"U","NORAD_CAT_ID":15071,"ELEMENT_SET_NO":999,"REV_AT_EPOCH":10006,"BSTAR":0.0003647613,"MEAN_MOTION_DOT":6.429e-5,"MEAN_MOTION_DDOT":0}]
